YAOGAN-36 04C           
1 54750U 22171E   26068.78871400  .00016196  00000+0  54592-3 0  9991
2 54750  34.9797  96.6578 0006685 275.3761  84.6192 15.29852307180246
STARLINK-32612          
1 61972U 24210P   26068.34235245  .00033572  00000+0  12230-2 0  9993
2 61972  43.0011 182.0561 0003043 285.6662  74.3854 15.27601895 74820
